GOES 5                  
1 12472U 81049A   26063.13945427 -.00000204  00000+0  00000+0 0  9995
2 12472   9.5464 316.3440 0004660 336.9727 190.1982  1.00211544121798
APPLE                   
1 12545U 81057B   26063.07436730 -.00000299  00000+0  00000+0 0  9994
2 12545   7.2745 297.6535 0022164 229.9422 324.3252  1.00040034121339
EKRAN 7                 
1 12564U 81061A   26063.62152655 -.00000322  00000+0  00000+0 0  9999
2 12564   6.7759 293.9477 0006283  44.3861 147.9321  1.00271759128460
RADUGA 9                
1 12618U 81069A   26063.66330007 -.00000305  00000+0  00000+0 0  9991
2 12618   6.8377 294.4226 0000368  64.0188 141.8349  1.00207432 46294
COSMOS 1285             
1 12627U 81071A   26058.14830556  .00000401  00000+0  00000+0 0  9991
2 12627  68.4567  98.5175 6066990 355.0679   5.9395  1.98052381244325
HIMAWARI-2 (GMS-2)      
1 12677U 81076A   26063.27266747  .00000068  00000+0  00000+0 0  9995
2 12677   8.2068 304.8774 0012112 332.1696 218.0918  0.99549448131184
SL-6 R/B(2)             
1 12680U 81071D   26063.01127226  .00000117  00000+0  00000+0 0  9999
2 12680  66.1801  63.4673 6740008  16.9256 357.4956  1.99209885242653
COSMOS 1124 DEB         
1 12814U 79077E   26062.42004147  .00015992  00000+0  18594-1 0  9997
2 12814  60.3848 235.9716 7336312  65.1721 351.6961  2.17190218 60779
COSMOS 1191 DEB         
1 12817U 80057E   26061.95816214  .00000920  00000+0  00000+0 0  9999
2 12817  64.2035  19.6705 7149253  33.8724 355.6343  1.99778490247081
SL-12 R/B(2)            
1 12851U 81061F   26063.56433705 -.00000137  00000+0  00000+0 0  9993
2 12851   6.2476 291.6549 0003674  46.2496 169.9680  1.01004942 46663
SBS 2                   
1 12855U 81096A   26063.58794772 -.00000376  00000+0  00000+0 0  9996
2 12855  10.4278 322.1214 0005110 268.9739 268.8527  1.00142513117566
COSMOS 1261 DEB         
1 12892U 81031E   26063.20428129  .00015281  00000+0  59342-2 0  9991
2 12892  62.1733 102.7973 7493986  45.4383 355.4991  2.01342529257309
COSMOS 1261 DEB         
1 12893U 81031F   26063.01327578  .00000611  00000+0  00000+0 0  9992
2 12893  64.5252 358.8429 7124102  26.4437 356.5562  2.01093549309996
RADUGA 10               
1 12897U 81102A   26063.65250713 -.00000029  00000+0  00000+0 0  9995
2 12897   6.9523 295.7054 0002912 270.8116 257.3414  1.00286140116292
COSMOS 1030 DEB         
1 12907U 78083E   26063.37568377  .00020981 -80249-6  20096-2 0  9997
2 12907  62.1957  23.2157 7493095  58.2038 353.4264  2.04385087332422
COSMOS 1030 DEB         
1 12919U 78083F   26057.15871872  .00000580  00000+0  00000+0 0  9998
2 12919  66.2020 266.2941 6380036 344.0164   2.8492  2.00027955 66364
OPS 4029                
1 12930U 81107A   26063.02323374  .00000035  00000+0  00000+0 0  9999
2 12930   5.5868   0.7691 1038759  42.8824 170.7512  1.00375744  6812
