[{"OBJECT_NAME":"GOES 5","OBJECT_ID":"1981-049A","EPOCH":"2026-03-04T03:20:48.848928","MEAN_MOTION":1.00211544,"ECCENTRICITY":0.000466,"INCLINATION":9.5464,"RA_OF_ASC_NODE":316.344,"ARG_OF_PERICENTER":336.9727,"MEAN_ANOMALY":190.1982,"EPHEMERIS_TYPE":0,"CLASSIFICATION_TYPE":"U","NORAD_CAT_ID":12472,"ELEMENT_SET_NO":999,"REV_AT_EPOCH":12179,"BSTAR":0,"MEAN_MOTION_DOT":-2.04e-6,"MEAN_MOTION_DDOT":0},{"OBJECT_NAME":"APPLE","OBJECT_ID":"1981-057B","EPOCH":"2026-03-04T01:47:05.334720","MEAN_MOTION":1.00040034,"ECCENTRICITY":0.00221643,"INCLINATION":7.2745,"RA_OF_ASC_NODE":297.6535,"ARG_OF_PERICENTER":229.9422,"MEAN_ANOMALY":324.3252,"EPHEMERIS_TYPE":0,"CLASSIFICATION_TYPE":"U","NORAD_CAT_ID":12545,"ELEMENT_SET_NO":999,"REV_AT_EPOCH":12133,"BSTAR":0,"MEAN_MOTION_DOT":-2.99e-6,"MEAN_MOTION_DDOT":0},{"OBJECT_NAME":"EKRAN 7","OBJECT_ID":"1981-061A","EPOCH":"2026-03-04T14:54:59.893920","MEAN_MOTION":1.00271759,"ECCENTRICITY":0.0006283,"INCLINATION":6.7759,"RA_OF_ASC_NODE":293.9477,"ARG_OF_PERICENTER":44.3861,"MEAN_ANOMALY":147.9321,"EPHEMERIS_TYPE":0,"CLASSIFICATION_TYPE":"U","NORAD_CAT_ID":12564,"ELEMENT_SET_NO":999,"REV_AT_EPOCH":12846,"BSTAR":0,"MEAN_MOTION_DOT":-3.22e-6,"MEAN_MOTION_DDOT":0},{"OBJECT_NAME":"RADUGA 9","OBJECT_ID":"1981-069A","EPOCH":"2026-03-04T15:55:09.126048","MEAN_MOTION":1.00207432,"ECCENTRICITY":3.68e-5,"INCLINATION":6.8377,"RA_OF_ASC_NODE":294.4226,"ARG_OF_PERICENTER":64.0188,"MEAN_ANOMALY":141.8349,"EPHEMERIS_TYPE":0,"CLASSIFICATION_TYPE":"U","NORAD_CAT_ID":12618,"ELEMENT_SET_NO":999,"REV_AT_EPOCH":4629,"BSTAR":0,"MEAN_MOTION_DOT":-3.05e-6,"MEAN_MOTION_DDOT":0},{"OBJECT_NAME":"COSMOS 1285","OBJECT_ID":"1981-071A","EPOCH":"2026-02-27T03:33:33.600384","MEAN_MOTION":1.98052381,"ECCENTRICITY":0.606699,"INCLINATION":68.4567,"RA_OF_ASC_NODE":98.5175,"ARG_OF_PERICENTER":355.0679,"MEAN_ANOMALY":5.9395,"EPHEMERIS_TYPE":0,"CLASSIFICATION_TYPE":"U","NORAD_CAT_ID":12627,"ELEMENT_SET_NO":999,"REV_AT_EPOCH":24432,"BSTAR":0,"MEAN_MOTION_DOT":4.01e-6,"MEAN_MOTION_DDOT":0},{"OBJECT_NAME":"HIMAWARI-2 (GMS-2)","OBJECT_ID":"1981-076A","EPOCH":"2026-03-04T06:32:38.469408","MEAN_MOTION":0.99549448,"ECCENTRICITY":0.00121124,"INCLINATION":8.2068,"RA_OF_ASC_NODE":304.8774,"ARG_OF_PERICENTER":332.1696,"MEAN_ANOMALY":218.0918,"EPHEMERIS_TYPE":0,"CLASSIFICATION_TYPE":"U","NORAD_CAT_ID":12677,"ELEMENT_SET_NO":999,"REV_AT_EPOCH":13118,"BSTAR":0,"MEAN_MOTION_DOT":6.8e-7,"MEAN_MOTION_DDOT":0},{"OBJECT_NAME":"SL-6 R/B(2)","OBJECT_ID":"1981-071D","EPOCH":"2026-03-04T00:16:13.923264","MEAN_MOTION":1.99209885,"ECCENTRICITY":0.67400088,"INCLINATION":66.1801,"RA_OF_ASC_NODE":63.4673,"ARG_OF_PERICENTER":16.9256,"MEAN_ANOMALY":357.4956,"EPHEMERIS_TYPE":0,"CLASSIFICATION_TYPE":"U","NORAD_CAT_ID":12680,"ELEMENT_SET_NO":999,"REV_AT_EPOCH":24265,"BSTAR":0,"MEAN_MOTION_DOT":1.17e-6,"MEAN_MOTION_DDOT":0},{"OBJECT_NAME":"COSMOS 1124 DEB","OBJECT_ID":"1979-077E","EPOCH":"2026-03-03T10:04:51.583008","MEAN_MOTION":2.17190218,"ECCENTRICITY":0.73363129,"INCLINATION":60.3848,"RA_OF_ASC_NODE":235.9716,"ARG_OF_PERICENTER":65.1721,"MEAN_ANOMALY":351.6961,"EPHEMERIS_TYPE":0,"CLASSIFICATION_TYPE":"U","NORAD_CAT_ID":12814,"ELEMENT_SET_NO":999,"REV_AT_EPOCH":6077,"BSTAR":0.018593978,"MEAN_MOTION_DOT":0.00015992,"MEAN_MOTION_DDOT":0},{"OBJECT_NAME":"COSMOS 1191 DEB","OBJECT_ID":"1980-057E","EPOCH":"2026-03-02T22:59:45.208896","MEAN_MOTION":1.9977849,"ECCENTRICITY":0.7149253,"INCLINATION":64.2035,"RA_OF_ASC_NODE":19.6705,"ARG_OF_PERICENTER":33.8724,"MEAN_ANOMALY":355.6343,"EPHEMERIS_TYPE":0,"CLASSIFICATION_TYPE":"U","NORAD_CAT_ID":12817,"ELEMENT_SET_NO":999,"REV_AT_EPOCH":24708,"BSTAR":0,"MEAN_MOTION_DOT":9.2e-6,"MEAN_MOTION_DDOT":0},{"OBJECT_NAME":"SL-12 R/B(2)","OBJECT_ID":"1981-061F","EPOCH":"2026-03-04T13:32:38.721120","MEAN_MOTION":1.01004942,"ECCENTRICITY":0.0003674,"INCLINATION":6.2476,"RA_OF_ASC_NODE":291.6549,"ARG_OF_PERICENTER":46.2496,"MEAN_ANOMALY":169.968,"EPHEMERIS_TYPE":0,"CLASSIFICATION_TYPE":"U","NORAD_CAT_ID":12851,"ELEMENT_SET_NO":999,"REV_AT_EPOCH":4666,"BSTAR":0,"MEAN_MOTION_DOT":-1.37e-6,"MEAN_MOTION_DDOT":0},{"OBJECT_NAME":"SBS 2","OBJECT_ID":"1981-096A","EPOCH":"2026-03-04T14:06:38.683008","MEAN_MOTION":1.00142513,"ECCENTRICITY":0.000511,"INCLINATION":10.4278,"RA_OF_ASC_NODE":322.1214,"ARG_OF_PERICENTER":268.9739,"MEAN_ANOMALY":268.8527,"EPHEMERIS_TYPE":0,"CLASSIFICATION_TYPE":"U","NORAD_CAT_ID":12855,"ELEMENT_SET_NO":999,"REV_AT_EPOCH":11756,"BSTAR":0,"MEAN_MOTION_DOT":-3.76e-6,"MEAN_MOTION_DDOT":0},{"OBJECT_NAME":"COSMOS 1261 DEB","OBJECT_ID":"1981-031E","EPOCH":"2026-03-04T04:54:09.903456","MEAN_MOTION":2.01342529,"ECCENTRICITY":0.74939867,"INCLINATION":62.1733,"RA_OF_ASC_NODE":102.7973,"ARG_OF_PERICENTER":45.4383,"MEAN_ANOMALY":355.4991,"EPHEMERIS_TYPE":0,"CLASSIFICATION_TYPE":"U","NORAD_CAT_ID":12892,"ELEMENT_SET_NO":999,"REV_AT_EPOCH":25730,"BSTAR":0.0059342059,"MEAN_MOTION_DOT":0.00015281,"MEAN_MOTION_DDOT":0},{"OBJECT_NAME":"COSMOS 1261 DEB","OBJECT_ID":"1981-031F","EPOCH":"2026-03-04T00:19:07.027392","MEAN_MOTION":2.01093549,"ECCENTRICITY":0.7124102,"INCLINATION":64.5252,"RA_OF_ASC_NODE":358.8429,"ARG_OF_PERICENTER":26.4437,"MEAN_ANOMALY":356.5562,"EPHEMERIS_TYPE":0,"CLASSIFICATION_TYPE":"U","NORAD_CAT_ID":12893,"ELEMENT_SET_NO":999,"REV_AT_EPOCH":30999,"BSTAR":0,"MEAN_MOTION_DOT":6.11e-6,"MEAN_MOTION_DDOT":0},{"OBJECT_NAME":"RADUGA 10","OBJECT_ID":"1981-102A","EPOCH":"2026-03-04T15:39:36.616032","MEAN_MOTION":1.0028614,"ECCENTRICITY":0.0002912,"INCLINATION":6.9523,"RA_OF_ASC_NODE":295.7054,"ARG_OF_PERICENTER":270.8116,"MEAN_ANOMALY":257.3414,"EPHEMERIS_TYPE":0,"CLASSIFICATION_TYPE":"U","NORAD_CAT_ID":12897,"ELEMENT_SET_NO":999,"REV_AT_EPOCH":11629,"BSTAR":0,"MEAN_MOTION_DOT":-2.9e-7,"MEAN_MOTION_DDOT":0},{"OBJECT_NAME":"COSMOS 1030 DEB","OBJECT_ID":"1978-083E","EPOCH":"2026-03-04T09:00:59.077728","MEAN_MOTION":2.04385087,"ECCENTRICITY":0.74930953,"INCLINATION":62.1957,"RA_OF_ASC_NODE":23.2157,"ARG_OF_PERICENTER":58.2038,"MEAN_ANOMALY":353.4264,"EPHEMERIS_TYPE":0,"CLASSIFICATION_TYPE":"U","NORAD_CAT_ID":12907,"ELEMENT_SET_NO":999,"REV_AT_EPOCH":33242,"BSTAR":0.0020095574,"MEAN_MOTION_DOT":0.00020981,"MEAN_MOTION_DDOT":-8.0249e-7},{"OBJECT_NAME":"COSMOS 1030 DEB","OBJECT_ID":"1978-083F","EPOCH":"2026-02-26T03:48:33.297408","MEAN_MOTION":2.00027955,"ECCENTRICITY":0.6380036,"INCLINATION":66.202,"RA_OF_ASC_NODE":266.2941,"ARG_OF_PERICENTER":344.0164,"MEAN_ANOMALY":2.8492,"EPHEMERIS_TYPE":0,"CLASSIFICATION_TYPE":"U","NORAD_CAT_ID":12919,"ELEMENT_SET_NO":999,"REV_AT_EPOCH":6636,"BSTAR":0,"MEAN_MOTION_DOT":5.8e-6,"MEAN_MOTION_DDOT":0},{"OBJECT_NAME":"OPS 4029","OBJECT_ID":"1981-107A","EPOCH":"2026-03-04T00:33:27.395136","MEAN_MOTION":1.00375744,"ECCENTRICITY":0.10387597,"INCLINATION":5.5868,"RA_OF_ASC_NODE":0.7691,"ARG_OF_PERICENTER":42.8824,"MEAN_ANOMALY":170.7512,"EPHEMERIS_TYPE":0,"CLASSIFICATION_TYPE":"U","NORAD_CAT_ID":12930,"ELEMENT_SET_NO":999,"REV_AT_EPOCH":681,"BSTAR":0,"MEAN_MOTION_DOT":3.5e-7,"MEAN_MOTION_DDOT":0}]
